{"type": "FeatureCollection", "features": [ {"type": "Feature", "properties": {"norad_id": 34790, "name": "COSMOS 2251 DEB", "group": "cosmos-2251-debris", "lat": -3.9415688537548874, "lon": -132.19300576894426, "alt_km": 784.0431360814782, "timestamp": "2025-12-20T22:39:11.020054+00:00", "meta": {"OBJECT_NAME": "COSMOS 2251 DEB", "OBJECT_ID": "1993-036AAT", "EPOCH": "2025-12-20T03:10:44.601024", "MEAN_MOTION": 14.24656104, "ECCENTRICITY": 0.01005224, "INCLINATION": 74.0538, "RA_OF_ASC_NODE": 230.3962, "ARG_OF_PERICENTER": 290.5432, "MEAN_ANOMALY": 224.5062, "EPHEMERIS_TYPE": 0, "CLASSIFICATION_TYPE": "U", "NORAD_CAT_ID": 34790, "ELEMENT_SET_NO": 999, "REV_AT_EPOCH": 86678, "BSTAR": 0.00041671452, "MEAN_MOTION_DOT": 9.95e-06, "MEAN_MOTION_DDOT": 0}, "tle": {"line1": "1 34790U 93036AAT 25354.13246066  .00000995  00000+0  41671-3 0  9995", "line2": "2 34790  74.0538 230.3962 0100522 290.5432 224.5062 14.24656104866781"}}, "geometry": {"type": "Point", "coordinates": [-132.19300576894426, -3.9415688537548874]}}, {"type": "Feature", "properties": {"norad_id": 34792, "name": "COSMOS 2251 DEB", "group": "cosmos-2251-debris", "lat": 30.655994095434416, "lon": -35.64308230147965, "alt_km": 705.6879431811694, "timestamp": "2025-12-20T22:39:11.020063+00:00", "meta": {"OBJECT_NAME": "COSMOS 2251 DEB", "OBJECT_ID": "1993-036AAV", "EPOCH": "2025-12-20T12:20:32.087328", "MEAN_MOTION": 14.56013291, "ECCENTRICITY": 0.0012416, "INCLINATION": 74.0171, "RA_OF_ASC_NODE": 154.9529, "ARG_OF_PERICENTER": 249.388, "MEAN_ANOMALY": 167.642, "EPHEMERIS_TYPE": 0, "CLASSIFICATION_TYPE": "U", "NORAD_CAT_ID": 34792, "ELEMENT_SET_NO": 999, "REV_AT_EPOCH": 87763, "BSTAR": 0.00068570227, "MEAN_MOTION_DOT": 2.993e-05, "MEAN_MOTION_DDOT": 0}, "tle": {"line1": "1 34792U 93036AAV 25354.51426027  .00002993  00000+0  68570-3 0  9993", "line2": "2 34792  74.0171 154.9529 0012416 249.3880 167.6420 14.56013291877639"}}, "geometry": {"type": "Point", "coordinates": [-35.64308230147965, 30.655994095434416]}}, {"type": "Feature", "properties": {"norad_id": 34793, "name": "COSMOS 2251 DEB", "group": "cosmos-2251-debris", "lat": 42.15556352396698, "lon": 40.156408397813316, "alt_km": 770.4044800052752, "timestamp": "2025-12-20T22:39:11.020072+00:00", "meta": {"OBJECT_NAME": "COSMOS 2251 DEB", "OBJECT_ID": "1993-036AAW", "EPOCH": "2025-12-20T11:10:09.093792", "MEAN_MOTION": 14.38656039, "ECCENTRICITY": 0.00506275, "INCLINATION": 74.0021, "RA_OF_ASC_NODE": 236.0943, "ARG_OF_PERICENTER": 28.2181, "MEAN_ANOMALY": 149.6653, "EPHEMERIS_TYPE": 0, "CLASSIFICATION_TYPE": "U", "NORAD_CAT_ID": 34793, "ELEMENT_SET_NO": 999, "REV_AT_EPOCH": 87441, "BSTAR": 0.00017385054, "MEAN_MOTION_DOT": 5.14e-06, "MEAN_MOTION_DDOT": 0}, "tle": {"line1": "1 34793U 93036AAW 25354.46538303  .00000514  00000+0  17385-3 0  9994", "line2": "2 34793  74.0021 236.0943 0050627  28.2181 149.6653 14.38656039874414"}}, "geometry": {"type": "Point", "coordinates": [40.156408397813316, 42.15556352396698]}}, {"type": "Feature", "properties": {"norad_id": 34796, "name": "COSMOS 2251 DEB", "group": "cosmos-2251-debris", "lat": 14.223229190585425, "lon": 16.800623893389098, "alt_km": 781.4702716630663, "timestamp": "2025-12-20T22:39:11.020081+00:00", "meta": {"OBJECT_NAME": "COSMOS 2251 DEB", "OBJECT_ID": "1993-036AAZ", "EPOCH": "2025-12-19T08:34:23.356992", "MEAN_MOTION": 14.48719322, "ECCENTRICITY": 0.0100258, "INCLINATION": 74.0291, "RA_OF_ASC_NODE": 203.9373, "ARG_OF_PERICENTER": 304.5968, "MEAN_ANOMALY": 229.5737, "EPHEMERIS_TYPE": 0, "CLASSIFICATION_TYPE": "U", "NORAD_CAT_ID": 34796, "ELEMENT_SET_NO": 999, "REV_AT_EPOCH": 88123, "BSTAR": 0.00040539, "MEAN_MOTION_DOT": 1.598e-05, "MEAN_MOTION_DDOT": 0}, "tle": {"line1": "1 34796U 93036AAZ 25353.35721478  .00001598  00000+0  40539-3 0  9991", "line2": "2 34796  74.0291 203.9373 0100258 304.5968 229.5737 14.48719322881230"}}, "geometry": {"type": "Point", "coordinates": [16.800623893389098, 14.223229190585425]}}, {"type": "Feature", "properties": {"norad_id": 34797, "name": "COSMOS 2251 DEB", "group": "cosmos-2251-debris", "lat": 59.40730121023691, "lon": -124.37870348428805, "alt_km": 733.853163496512, "timestamp": "2025-12-20T22:39:11.020090+00:00", "meta": {"OBJECT_NAME": "COSMOS 2251 DEB", "OBJECT_ID": "1993-036ABA", "EPOCH": "2025-12-18T13:32:08.695392", "MEAN_MOTION": 14.42903821, "ECCENTRICITY": 0.00713736, "INCLINATION": 73.9783, "RA_OF_ASC_NODE": 89.1324, "ARG_OF_PERICENTER": 201.7042, "MEAN_ANOMALY": 158.1087, "EPHEMERIS_TYPE": 0, "CLASSIFICATION_TYPE": "U", "NORAD_CAT_ID": 34797, "ELEMENT_SET_NO": 999, "REV_AT_EPOCH": 87499, "BSTAR": 0.0016985088, "MEAN_MOTION_DOT": 5.83e-05, "MEAN_MOTION_DDOT": 0}, "tle": {"line1": "1 34797U 93036ABA 25352.56398953  .00005830  00000+0  16985-2 0  9992", "line2": "2 34797  73.9783  89.1324 0071373 201.7042 158.1087 14.42903821874994"}}, "geometry": {"type": "Point", "coordinates": [-124.37870348428805, 59.40730121023691]}}, {"type": "Feature", "properties": {"norad_id": 34814, "name": "COSMOS 2251 DEB", "group": "cosmos-2251-debris", "lat": -68.10773758227919, "lon": -95.74556926284838, "alt_km": 773.2231193722328, "timestamp": "2025-12-20T22:39:11.020099+00:00", "meta": {"OBJECT_NAME": "COSMOS 2251 DEB", "OBJECT_ID": "1993-036ABD", "EPOCH": "2025-12-20T15:30:26.921952", "MEAN_MOTION": 14.36924529, "ECCENTRICITY": 0.00556695, "INCLINATION": 73.8958, "RA_OF_ASC_NODE": 310.7738, "ARG_OF_PERICENTER": 198.7366, "MEAN_ANOMALY": 346.1434, "EPHEMERIS_TYPE": 0, "CLASSIFICATION_TYPE": "U", "NORAD_CAT_ID": 34814, "ELEMENT_SET_NO": 999, "REV_AT_EPOCH": 87446, "BSTAR": 0.00047694013, "MEAN_MOTION_DOT": 1.41e-05, "MEAN_MOTION_DDOT": 0}, "tle": {"line1": "1 34814U 93036ABD 25354.64614493  .00001410  00000+0  47694-3 0  9995", "line2": "2 34814  73.8958 310.7738 0055669 198.7366 346.1434 14.36924529874461"}}, "geometry": {"type": "Point", "coordinates": [-95.74556926284838, -68.10773758227919]}}, {"type": "Feature", "properties": {"norad_id": 34815, "name": "COSMOS 2251 DEB", "group": "cosmos-2251-debris", "lat": -40.17393342808789, "lon": 59.66930154311813, "alt_km": 626.9103687259885, "timestamp": "2025-12-20T22:39:11.020108+00:00", "meta": {"OBJECT_NAME": "COSMOS 2251 DEB", "OBJECT_ID": "1993-036ABE", "EPOCH": "2025-12-20T10:16:40.050048", "MEAN_MOTION": 14.78393798, "ECCENTRICITY": 0.00588232, "INCLINATION": 74.0442, "RA_OF_ASC_NODE": 226.7033, "ARG_OF_PERICENTER": 294.1774, "MEAN_ANOMALY": 65.3259, "EPHEMERIS_TYPE": 0, "CLASSIFICATION_TYPE": "U", "NORAD_CAT_ID": 34815, "ELEMENT_SET_NO": 999, "REV_AT_EPOCH": 88741, "BSTAR": 0.00048218282, "MEAN_MOTION_DOT": 3.58e-05, "MEAN_MOTION_DDOT": 0}, "tle": {"line1": "1 34815U 93036ABE 25354.42824132  .00003580  00000+0  48218-3 0  9998", "line2": "2 34815  74.0442 226.7033 0058823 294.1774  65.3259 14.78393798887414"}}, "geometry": {"type": "Point", "coordinates": [59.66930154311813, -40.17393342808789]}}, {"type": "Feature", "properties": {"norad_id": 34816, "name": "COSMOS 2251 DEB", "group": "cosmos-2251-debris", "lat": -52.352102247412034, "lon": -28.258029130044207, "alt_km": 839.9821223949402, "timestamp": "2025-12-20T22:39:11.020117+00:00", "meta": {"OBJECT_NAME": "COSMOS 2251 DEB", "OBJECT_ID": "1993-036ABF", "EPOCH": "2025-12-19T19:45:52.299072", "MEAN_MOTION": 13.58341455, "ECCENTRICITY": 0.03732066, "INCLINATION": 73.8867, "RA_OF_ASC_NODE": 131.5634, "ARG_OF_PERICENTER": 194.8145, "MEAN_ANOMALY": 321.2377, "EPHEMERIS_TYPE": 0, "CLASSIFICATION_TYPE": "U", "NORAD_CAT_ID": 34816, "ELEMENT_SET_NO": 999, "REV_AT_EPOCH": 82879, "BSTAR": 0.00094697694, "MEAN_MOTION_DOT": 1.062e-05, "MEAN_MOTION_DDOT": 0}, "tle": {"line1": "1 34816U 93036ABF 25353.82352198  .00001062  00000+0  94698-3 0  9996", "line2": "2 34816  73.8867 131.5634 0373206 194.8145 321.2377 13.58341455828797"}}, "geometry": {"type": "Point", "coordinates": [-28.258029130044207, -52.352102247412034]}}, {"type": "Feature", "properties": {"norad_id": 34818, "name": "COSMOS 2251 DEB", "group": "cosmos-2251-debris", "lat": -2.4019316655863205, "lon": -78.8327628437666, "alt_km": 753.9375201220255, "timestamp": "2025-12-20T22:39:11.020126+00:00", "meta": {"OBJECT_NAME": "COSMOS 2251 DEB", "OBJECT_ID": "1993-036ABH", "EPOCH": "2025-12-18T20:48:35.786304", "MEAN_MOTION": 14.3697434, "ECCENTRICITY": 0.00244833, "INCLINATION": 74.036, "RA_OF_ASC_NODE": 285.6723, "ARG_OF_PERICENTER": 359.9167, "MEAN_ANOMALY": 58.515, "EPHEMERIS_TYPE": 0, "CLASSIFICATION_TYPE": "U", "NORAD_CAT_ID": 34818, "ELEMENT_SET_NO": 999, "REV_AT_EPOCH": 87458, "BSTAR": 0.00016248256, "MEAN_MOTION_DOT": 4.57e-06, "MEAN_MOTION_DDOT": 0}, "tle": {"line1": "1 34818U 93036ABH 25352.86708086  .00000457  00000+0  16248-3 0  9994", "line2": "2 34818  74.0360 285.6723 0024483 359.9167  58.5150 14.36974340874587"}}, "geometry": {"type": "Point", "coordinates": [-78.8327628437666, -2.4019316655863205]}}, {"type": "Feature", "properties": {"norad_id": 34819, "name": "COSMOS 2251 DEB", "group": "cosmos-2251-debris", "lat": -5.901605727721145, "lon": 125.18857115387175, "alt_km": 690.7812622093606, "timestamp": "2025-12-20T22:39:11.020135+00:00", "meta": {"OBJECT_NAME": "COSMOS 2251 DEB", "OBJECT_ID": "1993-036ABJ", "EPOCH": "2025-12-20T09:50:49.162272", "MEAN_MOTION": 14.64072467, "ECCENTRICITY": 0.00155371, "INCLINATION": 74.018, "RA_OF_ASC_NODE": 127.9117, "ARG_OF_PERICENTER": 222.8872, "MEAN_ANOMALY": 199.7592, "EPHEMERIS_TYPE": 0, "CLASSIFICATION_TYPE": "U", "NORAD_CAT_ID": 34819, "ELEMENT_SET_NO": 999, "REV_AT_EPOCH": 88341, "BSTAR": 0.001010903, "MEAN_MOTION_DOT": 5.289e-05, "MEAN_MOTION_DDOT": 0}, "tle": {"line1": "1 34819U 93036ABJ 25354.41029123  .00005289  00000+0  10109-2 0  9993", "line2": "2 34819  74.0180 127.9117 0015537 222.8872 199.7592 14.64072467883414"}}, "geometry": {"type": "Point", "coordinates": [125.18857115387175, -5.901605727721145]}}]}